GLOBALSTAR M023         
1 25621U 99004A   24342.55309153  .00000039  00000+0  79297-3 0  9992
2 25621  52.0111 276.9688 0010619  63.7558 107.8335 12.62486623191520
GLOBALSTAR M040         
1 25622U 99004B   24342.61161397 -.00000035  00000+0  38646-3 0  9996
2 25622  51.9924 280.6580 0001168   9.9846 160.9478 12.61992813191064
GLOBALSTAR M036         
1 25623U 99004C   24342.50527133 -.00000033  00000+0  72764-3 0  9996
2 25623  51.9992  25.5479 0010936  47.4185  93.4822 11.86582677156220
GLOBALSTAR M038         
1 25624U 99004D   24342.57129836 -.00000053  00000+0  34813-3 0  9997
2 25624  51.9976 263.3997 0002537  26.9467 144.2934 12.32515408178743
GLOBALSTAR M022         
1 25649U 99012A   24342.48115608 -.00000045  00000+0  49988-3 0  9995
2 25649  52.0039  92.0417 0003155 141.8909 297.2146 12.02492818153317
GLOBALSTAR M041         
1 25650U 99012B   24342.35598331 -.00000059  00000+0  34560-3 0  9996
2 25650  52.0038 327.9882 0002138 309.0127  51.0519 11.96662360155319
GLOBALSTAR M046         
1 25651U 99012C   24342.53770171 -.00000035  00000+0  58857-3 0  9990
2 25651  52.0079  49.0193 0002207 214.7065 282.7144 12.09404000160472
GLOBALSTAR M037         
1 25652U 99012D   24342.51400435 -.00000065  00000+0  21664-3 0  9991
2 25652  52.0024  47.7739 0002494 124.7852   6.9936 12.62428185187064
